AUTCUBE 2               
1 43681U 18084K   26068.48152820  .00005282  00000+0  33524-3 0  9991
2 43681  98.0799 269.3640 0009685  28.2406 331.9345 15.09319394401889
STARLINK-2519           
1 48305U 21036AF  26068.50183065 -.00000883  00000+0 -40415-4 0  9990
2 48305  53.0546  93.0417 0001353  81.8950 278.2193 15.06399820268137
